[{"OBJECT_NAME":"STARLINK-30255","OBJECT_ID":"2023-119E","EPOCH":"2026-03-09T22:00:01.999584","MEAN_MOTION":15.16774249,"ECCENTRICITY":0.000133,"INCLINATION":42.9991,"RA_OF_ASC_NODE":79.5096,"ARG_OF_PERICENTER":260.6815,"MEAN_ANOMALY":336.1551,"EPHEMERIS_TYPE":0,"CLASSIFICATION_TYPE":"U","NORAD_CAT_ID":57606,"ELEMENT_SET_NO":999,"REV_AT_EPOCH":562,"BSTAR":0.0048551842,"MEAN_MOTION_DOT":0.00098184,"MEAN_MOTION_DDOT":0},{"OBJECT_NAME":"TRANSPORTER-15 OBJECT DM","OBJECT_ID":"2025-276DM","EPOCH":"2026-03-09T22:43:55.888032","MEAN_MOTION":15.19567791,"ECCENTRICITY":0.00018743,"INCLINATION":97.4286,"RA_OF_ASC_NODE":144.3741,"ARG_OF_PERICENTER":156.2959,"MEAN_ANOMALY":203.8363,"EPHEMERIS_TYPE":0,"CLASSIFICATION_TYPE":"U","NORAD_CAT_ID":66773,"ELEMENT_SET_NO":999,"REV_AT_EPOCH":1536,"BSTAR":0.00033320961,"MEAN_MOTION_DOT":7.022e-5,"MEAN_MOTION_DDOT":0}]
